0 DELTA 1 DEB
1 10747U 76077AU  13281.81907039 -.00000060  00000-0 -12156-4 0  1302
2 10747 101.0741 039.9681 0173284 172.6651 315.8381 13.41529894783355
0 DELTA 1 DEB
1 10747U 76077AU  13282.86164620  .00000113  00000-0  27121-3 0  1314
2 10747 101.0741 041.1089 0173213 170.2883 310.9207 13.41533339783492
0 DELTA 1 DEB
1 10747U 76077AU  13285.91785692  .00000220  00000-0  44613-3 0  1337
2 10747 101.0745 044.4530 0172881 163.3863 310.7648 13.41538112783901
0 DELTA 1 DEB
1 10747U 76077AU  13287.17863122  .00000330  00000-0  62765-3 0  1343
2 10747 101.0745 045.8327 0172745 160.5296 279.6486 13.41539386784074
0 DELTA 1 DEB
1 10747U 76077AU  13288.28682861  .00000655  00000-0  11617-2 0  1355
2 10747 101.0746 047.0455 0172626 158.0030 231.6865 13.41542007784227
0 DELTA 1 DEB
1 10747U 76077AU  13289.94693039  .00000769  00000-0  13481-2 0  1366
2 10747 101.0745 048.8622 0172395 154.2065 329.1840 13.41547261784447
0 DELTA 1 DEB
1 10747U 76077AU  13291.27744352  .00000724  00000-0  12751-2 0  1371
2 10747 101.0744 050.3183 0172185 151.1724 274.9331 13.41550206784626
0 DELTA 1 DEB
1 10747U 76077AU  13292.39247149  .00000966  00000-0  16726-2 0  1382
2 10747 101.0741 051.5384 0172000 148.6303 260.0061 13.41553463784779
0 DELTA 1 DEB
1 10747U 76077AU  13293.89756253  .00001004  00000-0  17351-2 0  1399
2 10747 101.0739 053.1854 0171762 145.1877 328.9309 13.41557579784971
0 DELTA 1 DEB
1 10747U 76077AU  13294.94700846  .00001216  00000-0  20845-2 0  1402
2 10747 101.0739 054.3339 0171665 142.7784 357.3164 13.41560416785110
